H1 CPF  1  HTS 2022  5  6 12  6261 larets           NONE
H2  0304206 5557    27944 2022 05 06  0  0  0 2022 05 11  0  0  0   180 1 1  0 0 0
H5  0.0560 
H9 
10 0 59708  57960.00000  0   -5575133.845    3629469.758    2341987.363
10 0 59708  58140.00000  0   -4943095.645    3556256.267    3553099.161
10 0 59708  58320.00000  0   -4134228.991    3334124.668    4633372.023
10 0 59708  58500.00000  0   -3182004.037    2967026.266    5543078.412
10 0 59708  58680.00000  0   -2124958.286    2465177.949    6248844.065
10 0 59708  58860.00000  0   -1005080.787    1844771.216    6724864.152
10 0 59708  59040.00000  0     133899.839    1127422.668    6953813.485
10 0 59708  59220.00000  0    1248244.580     339394.862    6927439.109
10 0 59708  59400.00000  0    2295893.803    -489382.162    6646830.443
10 0 59708  59580.00000  0    3238060.541   -1326457.256    6122365.674
10 0 59708  59760.00000  0    4040678.309   -2138135.181    5373335.331
10 0 59708  59940.00000  0    4675653.145   -2890839.217    4427247.252
10 0 59708  60120.00000  0    5121872.873   -3552508.703    3318832.934
10 0 59708  60300.00000  0    5365936.462   -4093975.022    2088776.174
10 0 59708  60480.00000  0    5402562.564   -4490247.779     782202.572
10 0 59708  60660.00000  0    5234657.501   -4721649.878    -553007.003
10 0 59708  60840.00000  0    4873042.151   -4774743.139   -1868011.367
10 0 59708  61020.00000  0    4335850.630   -4642994.780   -3114834.140
10 0 59708  61200.00000  0    3647636.190   -4327153.704   -4248134.248
10 0 59708  61380.00000  0    2838237.732   -3835323.973   -5226847.311
10 0 59708  61560.00000  0    1941468.478   -3182739.238   -6015633.824
10 0 59708  61740.00000  0     993698.392   -2391261.845   -6586088.091
10 0 59708  61920.00000  0      32391.096   -1488633.219   -6917691.691
10 0 59708  62100.00000  0    -905351.297    -507499.451   -6998487.781
10 0 59708  62280.00000  0   -1784181.815     515747.131   -6825471.488
10 0 59708  62460.00000  0   -2571806.431    1542277.905   -6404699.461
10 0 59708  62640.00000  0   -3240148.315    2532257.854   -5751116.658
10 0 59708  62820.00000  0   -3766350.212    3446360.027   -4888100.133
10 0 59708  63000.00000  0   -4133585.983    4247322.262   -3846709.649
10 0 59708  63180.00000  0   -4331640.040    4901484.869   -2664644.427
10 0 59708  63360.00000  0   -4357224.122    5380242.402   -1384931.851
10 0 59708  63540.00000  0   -4214015.565    5661340.909     -54379.317
10 0 59708  63720.00000  0   -3912398.720    5729946.475    1278163.940
10 0 59708  63900.00000  0   -3468914.202    5579416.018    2563658.229
10 0 59708  64080.00000  0   -2905436.491    5211720.012    3754754.028
10 0 59708  64260.00000  0   -2248123.281    4637489.027    4807598.392
10 0 59708  64440.00000  0   -1526202.400    3875691.105    5683489.271
10 0 59708  64620.00000  0    -770658.752    2952956.271    6350311.840
10 0 59708  64800.00000  0     -12888.931    1902585.909    6783699.639
10 0 59708  64980.00000  0     716612.008     763301.391    6967891.979
10 0 59708  65160.00000  0    1389482.578    -422217.646    6896272.520
10 0 59708  65340.00000  0    1980599.136   -1608950.181    6571582.960
10 0 59708  65520.00000  0    2469016.494   -2751255.901    6005812.191
10 0 59708  65700.00000  0    2838716.045   -3804644.657    5219762.371
10 0 59708  65880.00000  0    3079134.650   -4727529.813    4242298.622
10 0 59708  66060.00000  0    3185457.500   -5482899.223    3109302.520
10 0 59708  66240.00000  0    3158662.769   -6039833.912    1862354.409
10 0 59708  66420.00000  0    3005312.557   -6374801.797     547189.270
10 0 59708  66600.00000  0    2737103.714   -6472661.538    -788010.698
10 0 59708  66780.00000  0    2370201.058   -6327331.017   -2094422.500
10 0 59708  66960.00000  0    1924383.118   -5942077.030   -3324406.052
10 0 59708  67140.00000  0    1422048.478   -5329419.333   -4433260.631
10 0 59708  67320.00000  0     887140.919   -4510656.701   -5380834.662
10 0 59708  67500.00000  0     344053.274   -3515060.833   -6132932.830
10 0 59708  67680.00000  0    -183444.334   -2378782.050   -6662483.434
10 0 59708  67860.00000  0    -673206.399   -1143517.177   -6950439.142
10 0 59708  68040.00000  0   -1105606.616     145007.550   -6986401.547
10 0 59708  68220.00000  0   -1464297.751    1438690.700   -6768963.854
10 0 59708  68400.00000  0   -1736816.203    2688798.666   -6305770.674
10 0 59708  68580.00000  0   -1915014.091    3847756.134   -5613297.348
10 0 59708  68760.00000  0   -1995307.474    4870939.635   -4716341.474
10 0 59708  68940.00000  0   -1978730.062    5718415.810   -3647220.124
10 0 59708  69120.00000  0   -1870784.620    6356552.988   -2444676.372
10 0 59708  69300.00000  0   -1681092.048    6759432.495   -1152522.190
10 0 59708  69480.00000  0   -1422851.381    6909987.899     181948.440
10 0 59708  69660.00000  0   -1112130.858    6800804.870    1509718.741
10 0 59708  69840.00000  0    -767022.723    6434520.376    2781917.062
10 0 59708  70020.00000  0    -406706.902    5823779.531    3951687.334
10 0 59708  70200.00000  0     -50478.122    4990772.239    4975970.824
10 0 59708  70380.00000  0     283213.936    3966365.895    5817133.443
10 0 59708  70560.00000  0     577663.533    2788884.518    6444350.705
10 0 59708  70740.00000  0     818697.693    1502607.978    6834719.619
10 0 59708  70920.00000  0     995323.107     156052.596    6974061.876
10 0 59708  71100.00000  0    1100206.558   -1199890.578    6857404.063
10 0 59708  71280.00000  0    1129971.615   -2513895.670    6489136.478
10 0 59708  71460.00000  0    1085301.989   -3736160.432    5882844.071
10 0 59708  71640.00000  0     970848.144   -4820312.332    5060809.730
10 0 59708  71820.00000  0     794946.431   -5725189.085    4053209.838
10 0 59708  72000.00000  0     569162.132   -6416441.768    2897023.812
10 0 59708  72180.00000  0     307672.155   -6867886.808    1634675.240
10 0 59708  72360.00000  0      26515.704   -7062537.364     312457.416
10 0 59708  72540.00000  0    -257249.285   -6993268.348   -1021200.691
10 0 59708  72720.00000  0    -526439.410   -6663065.579   -2317556.135
10 0 59708  72900.00000  0    -764637.716   -6084854.640   -3529364.963
10 0 59708  73080.00000  0    -957041.607   -5280933.364   -4612614.440
10 0 59708  73260.00000  0   -1091224.568   -4282037.949   -5528103.363
10 0 59708  73440.00000  0   -1157775.481   -3126103.945   -6242809.913
10 0 59708  73620.00000  0   -1150789.205   -1856787.421   -6731014.482
10 0 59708  73800.00000  0   -1068191.703    -521809.388   -6975152.738
10 0 59708  73980.00000  0    -911890.947     828812.226   -6966389.382
10 0 59708  74160.00000  0    -687747.288    2144587.825   -6704910.682
10 0 59708  74340.00000  0    -405365.568    3376389.930   -6199937.088
10 0 59708  74520.00000  0     -77712.301    4478254.051   -5469454.038
10 0 59708  74700.00000  0     279434.979    5409094.175   -4539649.958
10 0 59708  74880.00000  0     648187.844    6134274.573   -3444062.559
10 0 59708  75060.00000  0    1009373.887    6626973.258   -2222438.109
10 0 59708  75240.00000  0    1343457.332    6869268.961    -919328.455
10 0 59708  75420.00000  0    1631511.167    6852888.300     417536.133
10 0 59708  75600.00000  0    1856189.516    6579556.358    1739035.081
10 0 59708  75780.00000  0    2002644.492    6060925.113    2996522.020
10 0 59708  75960.00000  0    2059340.093    5318082.424    4143681.586
10 0 59708  76140.00000  0    2018717.001    4380661.021    5138296.486
10 0 59708  76320.00000  0    1877670.207    3285588.085    5943838.081
10 0 59708  76500.00000  0    1637817.825    2075558.235    6530804.876
10 0 59708  76680.00000  0    1305554.274     797310.719    6877782.084
10 0 59708  76860.00000  0     891884.420    -500220.467    6972187.058
10 0 59708  77040.00000  0     412048.508   -1767800.473    6810694.001
10 0 59708  77220.00000  0    -115051.240   -2957776.787    6399335.361
10 0 59708  77400.00000  0    -667602.271   -4025884.712    5753269.583
10 0 59708  77580.00000  0   -1221778.033   -4932905.044    4896227.017
10 0 59708  77760.00000  0   -1752752.340   -5646129.399    3859663.811
10 0 59708  77940.00000  0   -2235797.964   -6140585.231    2681621.640
10 0 59708  78120.00000  0   -2647415.441   -6399948.326    1405323.675
10 0 59708  78300.00000  0   -2966436.389   -6417101.825      77564.638
10 0 59708  78480.00000  0   -3175043.980   -6194316.329   -1253042.543
10 0 59708  78660.00000  0   -3259659.958   -5743040.690   -2537887.698
10 0 59708  78840.00000  0   -3211654.080   -5083315.380   -3730170.903
10 0 59708  79020.00000  0   -3027839.249   -4242843.502   -4786615.278
10 0 59708  79200.00000  0   -2710731.999   -3255779.467   -5669011.357
10 0 59708  79380.00000  0   -2268576.544   -2161305.159   -6345544.700
10 0 59708  79560.00000  0   -1715135.003   -1002059.623   -6791874.182
10 0 59708  79740.00000  0   -1069254.388     177512.435   -6991935.847
10 0 59708  79920.00000  0    -354233.303    1332829.173   -6938464.459
10 0 59708  80100.00000  0     402994.676    2420808.197   -6633238.638
10 0 59708  80280.00000  0    1172840.639    3401433.055   -6087047.815
10 0 59708  80460.00000  0    1924184.183    4239210.650   -5319370.972
10 0 59708  80640.00000  0    2625604.706    4904469.769   -4357761.791
10 0 59708  80820.00000  0    3246681.682    5374459.421   -3236943.332
10 0 59708  81000.00000  0    3759313.204    5634196.171   -1997619.095
10 0 59708  81180.00000  0    4138995.101    5677013.071    -685026.425
10 0 59708  81360.00000  0    4365990.666    5504771.905     652723.915
10 0 59708  81540.00000  0    4426324.704    5127714.170    1966454.952
10 0 59708  81720.00000  0    4312543.988    4563953.782    3207792.293
10 0 59708  81900.00000  0    4024201.369    3838634.622    4331016.530
10 0 59708  82080.00000  0    3568030.489    2982790.487    5294800.869
10 0 59708  82260.00000  0    2957808.213    2031979.419    6063762.433
99
